GLOBALSTAR M045 [-]     
1 25676U 99019A   23279.71585860 -.00000039  00000+0  48212-3 0  9999
2 25676  51.9957 270.8283 0001009  59.3636 112.1339 12.27016657117349
GLOBALSTAR M019 [-]     
1 25677U 99019B   23279.55762635  .00000018  00000+0  11272-2 0  9990
2 25677  51.9905 358.0611 0001409 135.2165 331.0276 12.13843386110080
GLOBALSTAR M044 [-]     
1 25678U 99019C   23280.09184271 -.00000034  00000+0  69320-3 0  9993
2 25678  51.9952 230.4860 0006196 289.5021 151.3597 11.90223427 97584
GLOBALSTAR M042 [-]     
1 25679U 99019D   23279.93401495 -.00000078  00000+0  13508-3 0  9990
2 25679  52.0043 359.0671 0003603 105.9042  64.9506 12.22047600109542
GLOBALSTAR M025 [-]     
1 25770U 99031A   23279.91164872 -.00000064  00000+0  11410-3 0  9994
2 25770  51.9793 153.8566 0001040 141.3710 307.8134 11.22546034412161
GLOBALSTAR M049 [-]     
1 25771U 99031B   23279.96988552 -.00000117  00000+0 -17835-2 0  9995
2 25771  51.9851 157.3651 0003640  56.0094 304.1047 11.12101958 48536
GLOBALSTAR M047 [-]     
1 25772U 99031C   23279.93302881 -.00000051  00000+0  52105-3 0  9994
2 25772  51.9820 213.5774 0015987 281.6599  78.2412 11.31916021400989
GLOBALSTAR M052 [-]     
1 25773U 99031D   23279.71964113 -.00000053  00000+0  42806-3 0  9992
2 25773  51.9848 275.3156 0002227 228.4855 302.1607 11.15046191409402
